[{"OBJECT_NAME":"SKYSAT-A","OBJECT_ID":"2013-066C","EPOCH":"2026-03-02T16:30:56.050272","MEAN_MOTION":15.12289691,"ECCENTRICITY":0.0020675,"INCLINATION":97.3969,"RA_OF_ASC_NODE":114.4489,"ARG_OF_PERICENTER":326.0818,"MEAN_ANOMALY":33.9089,"EPHEMERIS_TYPE":0,"CLASSIFICATION_TYPE":"U","NORAD_CAT_ID":39418,"ELEMENT_SET_NO":999,"REV_AT_EPOCH":67238,"BSTAR":0.00027182,"MEAN_MOTION_DOT":4.664e-5,"MEAN_MOTION_DDOT":0},{"OBJECT_NAME":"SKYSAT-B","OBJECT_ID":"2014-037D","EPOCH":"2026-03-02T19:14:48.840288","MEAN_MOTION":14.87691447,"ECCENTRICITY":0.0004178,"INCLINATION":98.3716,"RA_OF_ASC_NODE":14.805,"ARG_OF_PERICENTER":263.0279,"MEAN_ANOMALY":97.046,"EPHEMERIS_TYPE":0,"CLASSIFICATION_TYPE":"U","NORAD_CAT_ID":40072,"ELEMENT_SET_NO":999,"REV_AT_EPOCH":63014,"BSTAR":0.0002766,"MEAN_MOTION_DOT":2.459e-5,"MEAN_MOTION_DDOT":0},{"OBJECT_NAME":"SKYSAT-C1","OBJECT_ID":"2016-040C","EPOCH":"2026-03-02T15:47:14.078976","MEAN_MOTION":15.34337075,"ECCENTRICITY":0.0004037,"INCLINATION":96.971,"RA_OF_ASC_NODE":99.2133,"ARG_OF_PERICENTER":67.4895,"MEAN_ANOMALY":292.6776,"EPHEMERIS_TYPE":0,"CLASSIFICATION_TYPE":"U","NORAD_CAT_ID":41601,"ELEMENT_SET_NO":999,"REV_AT_EPOCH":54152,"BSTAR":0.00033393,"MEAN_MOTION_DOT":0.00011035,"MEAN_MOTION_DDOT":0},{"OBJECT_NAME":"SKYSAT-C4","OBJECT_ID":"2016-058B","EPOCH":"2026-03-02T14:19:19.937856","MEAN_MOTION":15.45075178,"ECCENTRICITY":9.35e-5,"INCLINATION":96.9292,"RA_OF_ASC_NODE":88.0224,"ARG_OF_PERICENTER":75.8539,"MEAN_ANOMALY":284.2815,"EPHEMERIS_TYPE":0,"CLASSIFICATION_TYPE":"U","NORAD_CAT_ID":41771,"ELEMENT_SET_NO":999,"REV_AT_EPOCH":52899,"BSTAR":0.00039901,"MEAN_MOTION_DOT":0.00018797,"MEAN_MOTION_DDOT":0},{"OBJECT_NAME":"SKYSAT-C5","OBJECT_ID":"2016-058C","EPOCH":"2026-03-02T14:03:37.232640","MEAN_MOTION":15.34125336,"ECCENTRICITY":0.0001925,"INCLINATION":97.063,"RA_OF_ASC_NODE":106.9569,"ARG_OF_PERICENTER":85.5775,"MEAN_ANOMALY":274.5688,"EPHEMERIS_TYPE":0,"CLASSIFICATION_TYPE":"U","NORAD_CAT_ID":41772,"ELEMENT_SET_NO":999,"REV_AT_EPOCH":52740,"BSTAR":0.00030963,"MEAN_MOTION_DOT":0.00010154,"MEAN_MOTION_DDOT":0},{"OBJECT_NAME":"SKYSAT-C2","OBJECT_ID":"2016-058D","EPOCH":"2026-03-02T14:58:20.250336","MEAN_MOTION":15.39471988,"ECCENTRICITY":0.0005376,"INCLINATION":97.0285,"RA_OF_ASC_NODE":87.8558,"ARG_OF_PERICENTER":83.9934,"MEAN_ANOMALY":276.1925,"EPHEMERIS_TYPE":0,"CLASSIFICATION_TYPE":"U","NORAD_CAT_ID":41773,"ELEMENT_SET_NO":999,"REV_AT_EPOCH":52864,"BSTAR":0.00036418,"MEAN_MOTION_DOT":0.00014218,"MEAN_MOTION_DDOT":0},{"OBJECT_NAME":"SKYSAT-C3","OBJECT_ID":"2016-058E","EPOCH":"2026-03-02T13:51:19.521792","MEAN_MOTION":15.47941787,"ECCENTRICITY":0.0001539,"INCLINATION":96.9188,"RA_OF_ASC_NODE":96.7509,"ARG_OF_PERICENTER":101.8501,"MEAN_ANOMALY":258.2923,"EPHEMERIS_TYPE":0,"CLASSIFICATION_TYPE":"U","NORAD_CAT_ID":41774,"ELEMENT_SET_NO":999,"REV_AT_EPOCH":52959,"BSTAR":0.00044922,"MEAN_MOTION_DOT":0.0002338,"MEAN_MOTION_DDOT":0},{"OBJECT_NAME":"SKYSAT-C11","OBJECT_ID":"2017-068A","EPOCH":"2026-03-02T15:00:03.635712","MEAN_MOTION":15.51873572,"ECCENTRICITY":7.72e-5,"INCLINATION":97.4184,"RA_OF_ASC_NODE":206.3788,"ARG_OF_PERICENTER":88.2492,"MEAN_ANOMALY":271.8849,"EPHEMERIS_TYPE":0,"CLASSIFICATION_TYPE":"U","NORAD_CAT_ID":42987,"ELEMENT_SET_NO":999,"REV_AT_EPOCH":46668,"BSTAR":0.00053745,"MEAN_MOTION_DOT":0.00032172,"MEAN_MOTION_DDOT":0},{"OBJECT_NAME":"SKYSAT-C10","OBJECT_ID":"2017-068B","EPOCH":"2026-03-02T14:45:37.774656","MEAN_MOTION":15.32470276,"ECCENTRICITY":0.0001182,"INCLINATION":97.4321,"RA_OF_ASC_NODE":197.695,"ARG_OF_PERICENTER":90.8311,"MEAN_ANOMALY":269.3066,"EPHEMERIS_TYPE":0,"CLASSIFICATION_TYPE":"U","NORAD_CAT_ID":42988,"ELEMENT_SET_NO":999,"REV_AT_EPOCH":46602,"BSTAR":0.00041514,"MEAN_MOTION_DOT":0.00012945,"MEAN_MOTION_DDOT":0},{"OBJECT_NAME":"SKYSAT-C9","OBJECT_ID":"2017-068C","EPOCH":"2026-03-02T14:59:42.681984","MEAN_MOTION":15.38608931,"ECCENTRICITY":0.0009646,"INCLINATION":97.4246,"RA_OF_ASC_NODE":197.682,"ARG_OF_PERICENTER":156.0688,"MEAN_ANOMALY":204.1007,"EPHEMERIS_TYPE":0,"CLASSIFICATION_TYPE":"U","NORAD_CAT_ID":42989,"ELEMENT_SET_NO":999,"REV_AT_EPOCH":46635,"BSTAR":0.00047434,"MEAN_MOTION_DOT":0.00018049,"MEAN_MOTION_DDOT":0},{"OBJECT_NAME":"SKYSAT-C8","OBJECT_ID":"2017-068D","EPOCH":"2026-03-02T14:36:58.215168","MEAN_MOTION":15.34558761,"ECCENTRICITY":0.0001268,"INCLINATION":97.4344,"RA_OF_ASC_NODE":197.1032,"ARG_OF_PERICENTER":106.9595,"MEAN_ANOMALY":253.1787,"EPHEMERIS_TYPE":0,"CLASSIFICATION_TYPE":"U","NORAD_CAT_ID":42990,"ELEMENT_SET_NO":999,"REV_AT_EPOCH":46595,"BSTAR":0.00043646,"MEAN_MOTION_DOT":0.00014544,"MEAN_MOTION_DDOT":0},{"OBJECT_NAME":"SKYSAT-C7","OBJECT_ID":"2017-068E","EPOCH":"2026-03-02T14:22:21.382176","MEAN_MOTION":15.34489067,"ECCENTRICITY":0.0007385,"INCLINATION":97.4351,"RA_OF_ASC_NODE":198.0754,"ARG_OF_PERICENTER":125.6485,"MEAN_ANOMALY":234.5447,"EPHEMERIS_TYPE":0,"CLASSIFICATION_TYPE":"U","NORAD_CAT_ID":42991,"ELEMENT_SET_NO":999,"REV_AT_EPOCH":46601,"BSTAR":0.00044921,"MEAN_MOTION_DOT":0.00014951,"MEAN_MOTION_DDOT":0},{"OBJECT_NAME":"SKYSAT-C6","OBJECT_ID":"2017-068F","EPOCH":"2026-03-02T15:37:04.382688","MEAN_MOTION":15.32537296,"ECCENTRICITY":0.0003531,"INCLINATION":97.4386,"RA_OF_ASC_NODE":198.4322,"ARG_OF_PERICENTER":129.4456,"MEAN_ANOMALY":230.7098,"EPHEMERIS_TYPE":0,"CLASSIFICATION_TYPE":"U","NORAD_CAT_ID":42992,"ELEMENT_SET_NO":999,"REV_AT_EPOCH":46599,"BSTAR":0.00044292,"MEAN_MOTION_DOT":0.00013849,"MEAN_MOTION_DDOT":0},{"OBJECT_NAME":"SKYSAT-C12","OBJECT_ID":"2018-099AR","EPOCH":"2026-03-02T15:16:10.017984","MEAN_MOTION":15.45297388,"ECCENTRICITY":0.0004813,"INCLINATION":96.9382,"RA_OF_ASC_NODE":89.356,"ARG_OF_PERICENTER":156.2058,"MEAN_ANOMALY":203.9415,"EPHEMERIS_TYPE":0,"CLASSIFICATION_TYPE":"U","NORAD_CAT_ID":43797,"ELEMENT_SET_NO":999,"REV_AT_EPOCH":40538,"BSTAR":0.00040076,"MEAN_MOTION_DOT":0.00019032,"MEAN_MOTION_DDOT":0},{"OBJECT_NAME":"SKYSAT-C13","OBJECT_ID":"2018-099AW","EPOCH":"2026-03-02T16:20:06.273024","MEAN_MOTION":15.75326311,"ECCENTRICITY":0.0003175,"INCLINATION":96.9425,"RA_OF_ASC_NODE":109.3063,"ARG_OF_PERICENTER":228.758,"MEAN_ANOMALY":131.3413,"EPHEMERIS_TYPE":0,"CLASSIFICATION_TYPE":"U","NORAD_CAT_ID":43802,"ELEMENT_SET_NO":999,"REV_AT_EPOCH":40606,"BSTAR":0.0005795,"MEAN_MOTION_DOT":0.0008773,"MEAN_MOTION_DDOT":0},{"OBJECT_NAME":"FLOCK 4Q-16","OBJECT_ID":"2023-174R","EPOCH":"2026-03-02T19:45:52.788960","MEAN_MOTION":15.44347296,"ECCENTRICITY":0.0007887,"INCLINATION":97.3878,"RA_OF_ASC_NODE":147.8395,"ARG_OF_PERICENTER":180.0261,"MEAN_ANOMALY":180.0988,"EPHEMERIS_TYPE":0,"CLASSIFICATION_TYPE":"U","NORAD_CAT_ID":58271,"ELEMENT_SET_NO":999,"REV_AT_EPOCH":12913,"BSTAR":0.00066683,"MEAN_MOTION_DOT":0.00030775,"MEAN_MOTION_DDOT":0},{"OBJECT_NAME":"FLOCK 4Q-11","OBJECT_ID":"2023-174T","EPOCH":"2026-03-02T18:25:29.679168","MEAN_MOTION":15.44710825,"ECCENTRICITY":0.0007597,"INCLINATION":97.3917,"RA_OF_ASC_NODE":148.2556,"ARG_OF_PERICENTER":177.158,"MEAN_ANOMALY":182.9713,"EPHEMERIS_TYPE":0,"CLASSIFICATION_TYPE":"U","NORAD_CAT_ID":58273,"ELEMENT_SET_NO":999,"REV_AT_EPOCH":12913,"BSTAR":0.00060611,"MEAN_MOTION_DOT":0.000283,"MEAN_MOTION_DDOT":0}]
